CCSDS_OMM_VERS = 2.0
CREATION_DATE  = 
ORIGINATOR     = 

OBJECT_NAME    = ALOS (DAICHI)
OBJECT_ID      = 2006-002A
CENTER_NAME    = EARTH
REF_FRAME      = TEME
TIME_SYSTEM    = UTC
MEAN_ELEMENT_THEORY = SGP/SGP4

EPOCH          = 2026-02-08T10:23:40.402464
MEAN_MOTION    = 14.69712379
ECCENTRICITY   = .0002002
INCLINATION    = 98.1170
RA_OF_ASC_NODE = 355.5475
ARG_OF_PERICENTER = 66.8950
MEAN_ANOMALY   = 293.2466

EPHEMERIS_TYPE = 0
CLASSIFICATION_TYPE = U
NORAD_CAT_ID   = 28931
ELEMENT_SET_NO = 999
REV_AT_EPOCH   = 6918
BSTAR          = .3131457E-3
MEAN_MOTION_DOT = .1816E-4
MEAN_MOTION_DDOT = 0

CCSDS_OMM_VERS = 2.0
CREATION_DATE  = 
ORIGINATOR     = 

OBJECT_NAME    = H-2A R/B
OBJECT_ID      = 2006-002B
CENTER_NAME    = EARTH
REF_FRAME      = TEME
TIME_SYSTEM    = UTC
MEAN_ELEMENT_THEORY = SGP/SGP4

EPOCH          = 2026-02-08T08:54:34.485408
MEAN_MOTION    = 15.15829451
ECCENTRICITY   = .00528196
INCLINATION    = 98.2359
RA_OF_ASC_NODE = 183.8993
ARG_OF_PERICENTER = 342.2233
MEAN_ANOMALY   = 17.7148

EPHEMERIS_TYPE = 0
CLASSIFICATION_TYPE = U
NORAD_CAT_ID   = 28932
ELEMENT_SET_NO = 999
REV_AT_EPOCH   = 8999
BSTAR          = .43384092E-3
MEAN_MOTION_DOT = .8512E-4
MEAN_MOTION_DDOT = 0

CCSDS_OMM_VERS = 2.0
CREATION_DATE  = 
ORIGINATOR     = 

OBJECT_NAME    = RESURS-DK 1
OBJECT_ID      = 2006-021A
CENTER_NAME    = EARTH
REF_FRAME      = TEME
TIME_SYSTEM    = UTC
MEAN_ELEMENT_THEORY = SGP/SGP4

EPOCH          = 2026-02-08T04:11:26.650464
MEAN_MOTION    = 15.12571404
ECCENTRICITY   = .00046678
INCLINATION    = 69.9348
RA_OF_ASC_NODE = 313.3608
ARG_OF_PERICENTER = 205.9509
MEAN_ANOMALY   = 154.1424

EPHEMERIS_TYPE = 0
CLASSIFICATION_TYPE = U
NORAD_CAT_ID   = 29228
ELEMENT_SET_NO = 999
REV_AT_EPOCH   = 8306
BSTAR          = .20134908E-3
MEAN_MOTION_DOT = .3415E-4
MEAN_MOTION_DDOT = 0

CCSDS_OMM_VERS = 2.0
CREATION_DATE  = 
ORIGINATOR     = 

OBJECT_NAME    = CZ-4B R/B
OBJECT_ID      = 2006-046C
CENTER_NAME    = EARTH
REF_FRAME      = TEME
TIME_SYSTEM    = UTC
MEAN_ELEMENT_THEORY = SGP/SGP4

EPOCH          = 2026-02-08T13:57:02.299104
MEAN_MOTION    = 15.16588054
ECCENTRICITY   = .00336862
INCLINATION    = 97.5654
RA_OF_ASC_NODE = 84.5659
ARG_OF_PERICENTER = 11.3185
MEAN_ANOMALY   = 348.8797

EPHEMERIS_TYPE = 0
CLASSIFICATION_TYPE = U
NORAD_CAT_ID   = 29507
ELEMENT_SET_NO = 999
REV_AT_EPOCH   = 5563
BSTAR          = .26289281E-3
MEAN_MOTION_DOT = .5138E-4
MEAN_MOTION_DDOT = 0

CCSDS_OMM_VERS = 2.0
CREATION_DATE  = 
ORIGINATOR     = 

OBJECT_NAME    = CZ-2C R/B
OBJECT_ID      = 2007-010B
CENTER_NAME    = EARTH
REF_FRAME      = TEME
TIME_SYSTEM    = UTC
MEAN_ELEMENT_THEORY = SGP/SGP4

EPOCH          = 2026-02-08T08:21:18.414720
MEAN_MOTION    = 14.20235896
ECCENTRICITY   = .00593235
INCLINATION    = 98.3969
RA_OF_ASC_NODE = 154.1005
ARG_OF_PERICENTER = 20.6098
MEAN_ANOMALY   = 339.7454

EPHEMERIS_TYPE = 0
CLASSIFICATION_TYPE = U
NORAD_CAT_ID   = 31114
ELEMENT_SET_NO = 999
REV_AT_EPOCH   = 97555
BSTAR          = .86121645E-4
MEAN_MOTION_DOT = .146E-5
MEAN_MOTION_DDOT = 0

CCSDS_OMM_VERS = 2.0
CREATION_DATE  = 
ORIGINATOR     = 

OBJECT_NAME    = COSMO-SKYMED 1
OBJECT_ID      = 2007-023A
CENTER_NAME    = EARTH
REF_FRAME      = TEME
TIME_SYSTEM    = UTC
MEAN_ELEMENT_THEORY = SGP/SGP4

EPOCH          = 2026-02-08T13:50:52.533888
MEAN_MOTION    = 14.96301078
ECCENTRICITY   = .00008742
INCLINATION    = 97.8857
RA_OF_ASC_NODE = 230.3815
ARG_OF_PERICENTER = 77.5427
MEAN_ANOMALY   = 282.5892

EPHEMERIS_TYPE = 0
CLASSIFICATION_TYPE = U
NORAD_CAT_ID   = 31598
ELEMENT_SET_NO = 999
REV_AT_EPOCH   = 1055
BSTAR          = .32422485E-3
MEAN_MOTION_DOT = .3605E-4
MEAN_MOTION_DDOT = 0

CCSDS_OMM_VERS = 2.0
CREATION_DATE  = 
ORIGINATOR     = 

OBJECT_NAME    = COSMOS 2428
OBJECT_ID      = 2007-029A
CENTER_NAME    = EARTH
REF_FRAME      = TEME
TIME_SYSTEM    = UTC
MEAN_ELEMENT_THEORY = SGP/SGP4

EPOCH          = 2026-02-08T02:00:46.874304
MEAN_MOTION    = 14.12932366
ECCENTRICITY   = .0007274
INCLINATION    = 70.9396
RA_OF_ASC_NODE = 265.4907
ARG_OF_PERICENTER = 309.6878
MEAN_ANOMALY   = 50.3601

EPHEMERIS_TYPE = 0
CLASSIFICATION_TYPE = U
NORAD_CAT_ID   = 31792
ELEMENT_SET_NO = 999
REV_AT_EPOCH   = 95991
BSTAR          = .20058E-3
MEAN_MOTION_DOT = .326E-5
MEAN_MOTION_DDOT = 0

CCSDS_OMM_VERS = 2.0
CREATION_DATE  = 
ORIGINATOR     = 

OBJECT_NAME    = SL-16 R/B
OBJECT_ID      = 2007-029B
CENTER_NAME    = EARTH
REF_FRAME      = TEME
TIME_SYSTEM    = UTC
MEAN_ELEMENT_THEORY = SGP/SGP4

EPOCH          = 2026-02-08T13:49:59.510208
MEAN_MOTION    = 14.14831773
ECCENTRICITY   = .00019396
INCLINATION    = 70.9733
RA_OF_ASC_NODE = 233.5813
ARG_OF_PERICENTER = 277.5177
MEAN_ANOMALY   = 143.4439

EPHEMERIS_TYPE = 0
CLASSIFICATION_TYPE = U
NORAD_CAT_ID   = 31793
ELEMENT_SET_NO = 999
REV_AT_EPOCH   = 96125
BSTAR          = .23727837E-3
MEAN_MOTION_DOT = .41E-5
MEAN_MOTION_DDOT = 0

CCSDS_OMM_VERS = 2.0
CREATION_DATE  = 
ORIGINATOR     = 

OBJECT_NAME    = KORONAS-FOTON
OBJECT_ID      = 2009-003A
CENTER_NAME    = EARTH
REF_FRAME      = TEME
TIME_SYSTEM    = UTC
MEAN_ELEMENT_THEORY = SGP/SGP4

EPOCH          = 2026-02-08T04:34:47.457984
MEAN_MOTION    = 15.42543076
ECCENTRICITY   = .0008898
INCLINATION    = 82.4324
RA_OF_ASC_NODE = 306.5251
ARG_OF_PERICENTER = 264.1288
MEAN_ANOMALY   = 95.8944

EPHEMERIS_TYPE = 0
CLASSIFICATION_TYPE = U
NORAD_CAT_ID   = 33504
ELEMENT_SET_NO = 999
REV_AT_EPOCH   = 94119
BSTAR          = .26163E-3
MEAN_MOTION_DOT = .11406E-3
MEAN_MOTION_DDOT = 0

CCSDS_OMM_VERS = 2.0
CREATION_DATE  = 
ORIGINATOR     = 

OBJECT_NAME    = CZ-2C R/B
OBJECT_ID      = 2011-030B
CENTER_NAME    = EARTH
REF_FRAME      = TEME
TIME_SYSTEM    = UTC
MEAN_ELEMENT_THEORY = SGP/SGP4

EPOCH          = 2026-02-08T10:30:29.261952
MEAN_MOTION    = 14.81108841
ECCENTRICITY   = .00542496
INCLINATION    = 97.8495
RA_OF_ASC_NODE = 357.3006
ARG_OF_PERICENTER = 85.6420
MEAN_ANOMALY   = 29.0351

EPHEMERIS_TYPE = 0
CLASSIFICATION_TYPE = U
NORAD_CAT_ID   = 37731
ELEMENT_SET_NO = 999
REV_AT_EPOCH   = 78576
BSTAR          = .24346277E-3
MEAN_MOTION_DOT = .1885E-4
MEAN_MOTION_DDOT = 0

CCSDS_OMM_VERS = 2.0
CREATION_DATE  = 
ORIGINATOR     = 

OBJECT_NAME    = H-2A R/B
OBJECT_ID      = 2012-025E
CENTER_NAME    = EARTH
REF_FRAME      = TEME
TIME_SYSTEM    = UTC
MEAN_ELEMENT_THEORY = SGP/SGP4

EPOCH          = 2026-02-08T11:32:20.475456
MEAN_MOTION    = 14.94908411
ECCENTRICITY   = .00458312
INCLINATION    = 98.4680
RA_OF_ASC_NODE = 4.2080
ARG_OF_PERICENTER = 49.2904
MEAN_ANOMALY   = 311.2281

EPHEMERIS_TYPE = 0
CLASSIFICATION_TYPE = U
NORAD_CAT_ID   = 38341
ELEMENT_SET_NO = 999
REV_AT_EPOCH   = 74385
BSTAR          = .3746501E-3
MEAN_MOTION_DOT = .4104E-4
MEAN_MOTION_DDOT = 0

CCSDS_OMM_VERS = 2.0
CREATION_DATE  = 
ORIGINATOR     = 

OBJECT_NAME    = SHIJIAN-16 (SJ-16)
OBJECT_ID      = 2013-057A
CENTER_NAME    = EARTH
REF_FRAME      = TEME
TIME_SYSTEM    = UTC
MEAN_ELEMENT_THEORY = SGP/SGP4

EPOCH          = 2026-02-08T14:23:52.250784
MEAN_MOTION    = 14.92240218
ECCENTRICITY   = .00167958
INCLINATION    = 74.9705
RA_OF_ASC_NODE = 240.1542
ARG_OF_PERICENTER = 185.1690
MEAN_ANOMALY   = 174.9328

EPHEMERIS_TYPE = 0
CLASSIFICATION_TYPE = U
NORAD_CAT_ID   = 39358
ELEMENT_SET_NO = 999
REV_AT_EPOCH   = 66716
BSTAR          = .13589381E-3
MEAN_MOTION_DOT = .136E-4
MEAN_MOTION_DDOT = 0

